STARLINK-35659          
1 66385U 25257F   25334.91670139 -.02049971  00000+0 -42273-1 0  9994
2 66385  53.1599 320.3731 0001404  90.1422  18.6710 15.48709001  4594
STARLINK-35651          
1 66386U 25257G   25334.91670139  .00134643  00000+0  23932-2 0  9994
2 66386  53.1597 320.3606 0001462  99.6499  15.0848 15.49239722  4598
STARLINK-35661          
1 66387U 25257H   25334.91670139 -.00006598  00000+0 -11068-3 0  9992
2 66387  53.1596 320.3575 0001161  99.3187  17.3122 15.49304903  4594
STARLINK-35647          
1 66388U 25257J   25334.91670139 -.00011500  00000+0 -19904-3 0  9999
2 66388  53.1596 320.3531 0001187  96.8603  21.6904 15.49306566  4593
STARLINK-35694          
1 66389U 25257K   25334.91670139 -.00024750  00000+0 -43831-3 0  9997
2 66389  53.1597 320.3481 0001507  94.7265  25.7475 15.49310418  4595
STARLINK-35665          
1 66390U 25257L   25334.91670139  .00088203  00000+0  15794-2 0  9996
2 66390  53.1594 320.2767 0001592  93.8538  61.1423 15.49248580  4695
STARLINK-35656          
1 66391U 25257M   25334.91670139 -.02074181  00000+0 -54505-1 0  9993
2 66391  53.1588 320.0947 0001048  82.9407 158.2222 15.41733348  4695
STARLINK-35671          
1 66392U 25257N   25334.91670139 -.00013983  00000+0 -24382-3 0  9997
2 66392  53.1597 320.3413 0001189  97.9289  26.3750 15.49306318  4598
STARLINK-35652          
1 66393U 25257P   25334.91670139 -.00021665  00000+0 -38244-3 0  9996
2 66393  53.1597 320.3446 0001622  95.2794  27.0952 15.49316282  4592
STARLINK-35672          
1 66394U 25257Q   25334.91670139 -.00013816  00000+0 -24080-3 0  9999
2 66394  53.1596 320.3362 0001549  94.1709  32.0490 15.49306756  4599
STARLINK-35681          
1 66395U 25257R   25334.91670139  .00133964  00000+0  23810-2 0  9994
2 66395  53.1596 320.3329 0001632  97.7699  30.3733 15.49244811  4430
STARLINK-35669          
1 66396U 25257S   25334.91670139 -.00019710  00000+0 -34715-3 0  9996
2 66396  53.1596 320.3281 0001477  94.5811  35.4659 15.49312941  4596
