CCSDS_OMM_VERS = 2.0
CREATION_DATE  = 
ORIGINATOR     = 

OBJECT_NAME    = STARLINK-35659
OBJECT_ID      = 2025-257F
CENTER_NAME    = EARTH
REF_FRAME      = TEME
TIME_SYSTEM    = UTC
MEAN_ELEMENT_THEORY = SGP/SGP4

EPOCH          = 2025-11-30T22:00:03.000096
MEAN_MOTION    = 15.48709001
ECCENTRICITY   = .00014048
INCLINATION    = 53.1599
RA_OF_ASC_NODE = 320.3731
ARG_OF_PERICENTER = 90.1422
MEAN_ANOMALY   = 18.6710

EPHEMERIS_TYPE = 0
CLASSIFICATION_TYPE = U
NORAD_CAT_ID   = 66385
ELEMENT_SET_NO = 999
REV_AT_EPOCH   = 459
BSTAR          = -.4227276E-1
MEAN_MOTION_DOT = -.2049971E-1
MEAN_MOTION_DDOT = 0

CCSDS_OMM_VERS = 2.0
CREATION_DATE  = 
ORIGINATOR     = 

OBJECT_NAME    = STARLINK-35651
OBJECT_ID      = 2025-257G
CENTER_NAME    = EARTH
REF_FRAME      = TEME
TIME_SYSTEM    = UTC
MEAN_ELEMENT_THEORY = SGP/SGP4

EPOCH          = 2025-11-30T22:00:03.000096
MEAN_MOTION    = 15.49239722
ECCENTRICITY   = .00014627
INCLINATION    = 53.1597
RA_OF_ASC_NODE = 320.3606
ARG_OF_PERICENTER = 99.6499
MEAN_ANOMALY   = 15.0848

EPHEMERIS_TYPE = 0
CLASSIFICATION_TYPE = U
NORAD_CAT_ID   = 66386
ELEMENT_SET_NO = 999
REV_AT_EPOCH   = 459
BSTAR          = .23932395E-2
MEAN_MOTION_DOT = .134643E-2
MEAN_MOTION_DDOT = 0

CCSDS_OMM_VERS = 2.0
CREATION_DATE  = 
ORIGINATOR     = 

OBJECT_NAME    = STARLINK-35661
OBJECT_ID      = 2025-257H
CENTER_NAME    = EARTH
REF_FRAME      = TEME
TIME_SYSTEM    = UTC
MEAN_ELEMENT_THEORY = SGP/SGP4

EPOCH          = 2025-11-30T22:00:03.000096
MEAN_MOTION    = 15.49304903
ECCENTRICITY   = .00011612
INCLINATION    = 53.1596
RA_OF_ASC_NODE = 320.3575
ARG_OF_PERICENTER = 99.3187
MEAN_ANOMALY   = 17.3122

EPHEMERIS_TYPE = 0
CLASSIFICATION_TYPE = U
NORAD_CAT_ID   = 66387
ELEMENT_SET_NO = 999
REV_AT_EPOCH   = 459
BSTAR          = -.11067885E-3
MEAN_MOTION_DOT = -.6598E-4
MEAN_MOTION_DDOT = 0

CCSDS_OMM_VERS = 2.0
CREATION_DATE  = 
ORIGINATOR     = 

OBJECT_NAME    = STARLINK-35647
OBJECT_ID      = 2025-257J
CENTER_NAME    = EARTH
REF_FRAME      = TEME
TIME_SYSTEM    = UTC
MEAN_ELEMENT_THEORY = SGP/SGP4

EPOCH          = 2025-11-30T22:00:03.000096
MEAN_MOTION    = 15.49306566
ECCENTRICITY   = .00011872
INCLINATION    = 53.1596
RA_OF_ASC_NODE = 320.3531
ARG_OF_PERICENTER = 96.8603
MEAN_ANOMALY   = 21.6904

EPHEMERIS_TYPE = 0
CLASSIFICATION_TYPE = U
NORAD_CAT_ID   = 66388
ELEMENT_SET_NO = 999
REV_AT_EPOCH   = 459
BSTAR          = -.19903619E-3
MEAN_MOTION_DOT = -.115E-3
MEAN_MOTION_DDOT = 0

CCSDS_OMM_VERS = 2.0
CREATION_DATE  = 
ORIGINATOR     = 

OBJECT_NAME    = STARLINK-35694
OBJECT_ID      = 2025-257K
CENTER_NAME    = EARTH
REF_FRAME      = TEME
TIME_SYSTEM    = UTC
MEAN_ELEMENT_THEORY = SGP/SGP4

EPOCH          = 2025-11-30T22:00:03.000096
MEAN_MOTION    = 15.49310418
ECCENTRICITY   = .00015073
INCLINATION    = 53.1597
RA_OF_ASC_NODE = 320.3481
ARG_OF_PERICENTER = 94.7265
MEAN_ANOMALY   = 25.7475

EPHEMERIS_TYPE = 0
CLASSIFICATION_TYPE = U
NORAD_CAT_ID   = 66389
ELEMENT_SET_NO = 999
REV_AT_EPOCH   = 459
BSTAR          = -.43830927E-3
MEAN_MOTION_DOT = -.2475E-3
MEAN_MOTION_DDOT = 0

CCSDS_OMM_VERS = 2.0
CREATION_DATE  = 
ORIGINATOR     = 

OBJECT_NAME    = STARLINK-35665
OBJECT_ID      = 2025-257L
CENTER_NAME    = EARTH
REF_FRAME      = TEME
TIME_SYSTEM    = UTC
MEAN_ELEMENT_THEORY = SGP/SGP4

EPOCH          = 2025-11-30T22:00:03.000096
MEAN_MOTION    = 15.49248580
ECCENTRICITY   = .00015928
INCLINATION    = 53.1594
RA_OF_ASC_NODE = 320.2767
ARG_OF_PERICENTER = 93.8538
MEAN_ANOMALY   = 61.1423

EPHEMERIS_TYPE = 0
CLASSIFICATION_TYPE = U
NORAD_CAT_ID   = 66390
ELEMENT_SET_NO = 999
REV_AT_EPOCH   = 469
BSTAR          = .1579427E-2
MEAN_MOTION_DOT = .88203E-3
MEAN_MOTION_DDOT = 0

CCSDS_OMM_VERS = 2.0
CREATION_DATE  = 
ORIGINATOR     = 

OBJECT_NAME    = STARLINK-35656
OBJECT_ID      = 2025-257M
CENTER_NAME    = EARTH
REF_FRAME      = TEME
TIME_SYSTEM    = UTC
MEAN_ELEMENT_THEORY = SGP/SGP4

EPOCH          = 2025-11-30T22:00:03.000096
MEAN_MOTION    = 15.41733348
ECCENTRICITY   = .00010484
INCLINATION    = 53.1588
RA_OF_ASC_NODE = 320.0947
ARG_OF_PERICENTER = 82.9407
MEAN_ANOMALY   = 158.2222

EPHEMERIS_TYPE = 0
CLASSIFICATION_TYPE = U
NORAD_CAT_ID   = 66391
ELEMENT_SET_NO = 999
REV_AT_EPOCH   = 469
BSTAR          = -.54505257E-1
MEAN_MOTION_DOT = -.2074181E-1
MEAN_MOTION_DDOT = 0

CCSDS_OMM_VERS = 2.0
CREATION_DATE  = 
ORIGINATOR     = 

OBJECT_NAME    = STARLINK-35671
OBJECT_ID      = 2025-257N
CENTER_NAME    = EARTH
REF_FRAME      = TEME
TIME_SYSTEM    = UTC
MEAN_ELEMENT_THEORY = SGP/SGP4

EPOCH          = 2025-11-30T22:00:03.000096
MEAN_MOTION    = 15.49306318
ECCENTRICITY   = .00011896
INCLINATION    = 53.1597
RA_OF_ASC_NODE = 320.3413
ARG_OF_PERICENTER = 97.9289
MEAN_ANOMALY   = 26.3750

EPHEMERIS_TYPE = 0
CLASSIFICATION_TYPE = U
NORAD_CAT_ID   = 66392
ELEMENT_SET_NO = 999
REV_AT_EPOCH   = 459
BSTAR          = -.24381794E-3
MEAN_MOTION_DOT = -.13983E-3
MEAN_MOTION_DDOT = 0

CCSDS_OMM_VERS = 2.0
CREATION_DATE  = 
ORIGINATOR     = 

OBJECT_NAME    = STARLINK-35652
OBJECT_ID      = 2025-257P
CENTER_NAME    = EARTH
REF_FRAME      = TEME
TIME_SYSTEM    = UTC
MEAN_ELEMENT_THEORY = SGP/SGP4

EPOCH          = 2025-11-30T22:00:03.000096
MEAN_MOTION    = 15.49316282
ECCENTRICITY   = .00016227
INCLINATION    = 53.1597
RA_OF_ASC_NODE = 320.3446
ARG_OF_PERICENTER = 95.2794
MEAN_ANOMALY   = 27.0952

EPHEMERIS_TYPE = 0
CLASSIFICATION_TYPE = U
NORAD_CAT_ID   = 66393
ELEMENT_SET_NO = 999
REV_AT_EPOCH   = 459
BSTAR          = -.38244013E-3
MEAN_MOTION_DOT = -.21665E-3
MEAN_MOTION_DDOT = 0

CCSDS_OMM_VERS = 2.0
CREATION_DATE  = 
ORIGINATOR     = 

OBJECT_NAME    = STARLINK-35672
OBJECT_ID      = 2025-257Q
CENTER_NAME    = EARTH
REF_FRAME      = TEME
TIME_SYSTEM    = UTC
MEAN_ELEMENT_THEORY = SGP/SGP4

EPOCH          = 2025-11-30T22:00:03.000096
MEAN_MOTION    = 15.49306756
ECCENTRICITY   = .00015495
INCLINATION    = 53.1596
RA_OF_ASC_NODE = 320.3362
ARG_OF_PERICENTER = 94.1709
MEAN_ANOMALY   = 32.0490

EPHEMERIS_TYPE = 0
CLASSIFICATION_TYPE = U
NORAD_CAT_ID   = 66394
ELEMENT_SET_NO = 999
REV_AT_EPOCH   = 459
BSTAR          = -.24080187E-3
MEAN_MOTION_DOT = -.13816E-3
MEAN_MOTION_DDOT = 0

CCSDS_OMM_VERS = 2.0
CREATION_DATE  = 
ORIGINATOR     = 

OBJECT_NAME    = STARLINK-35681
OBJECT_ID      = 2025-257R
CENTER_NAME    = EARTH
REF_FRAME      = TEME
TIME_SYSTEM    = UTC
MEAN_ELEMENT_THEORY = SGP/SGP4

EPOCH          = 2025-11-30T22:00:03.000096
MEAN_MOTION    = 15.49244811
ECCENTRICITY   = .00016323
INCLINATION    = 53.1596
RA_OF_ASC_NODE = 320.3329
ARG_OF_PERICENTER = 97.7699
MEAN_ANOMALY   = 30.3733

EPHEMERIS_TYPE = 0
CLASSIFICATION_TYPE = U
NORAD_CAT_ID   = 66395
ELEMENT_SET_NO = 999
REV_AT_EPOCH   = 443
BSTAR          = .23809891E-2
MEAN_MOTION_DOT = .133964E-2
MEAN_MOTION_DDOT = 0

CCSDS_OMM_VERS = 2.0
CREATION_DATE  = 
ORIGINATOR     = 

OBJECT_NAME    = STARLINK-35669
OBJECT_ID      = 2025-257S
CENTER_NAME    = EARTH
REF_FRAME      = TEME
TIME_SYSTEM    = UTC
MEAN_ELEMENT_THEORY = SGP/SGP4

EPOCH          = 2025-11-30T22:00:03.000096
MEAN_MOTION    = 15.49312941
ECCENTRICITY   = .00014779
INCLINATION    = 53.1596
RA_OF_ASC_NODE = 320.3281
ARG_OF_PERICENTER = 94.5811
MEAN_ANOMALY   = 35.4659

EPHEMERIS_TYPE = 0
CLASSIFICATION_TYPE = U
NORAD_CAT_ID   = 66396
ELEMENT_SET_NO = 999
REV_AT_EPOCH   = 459
BSTAR          = -.34715044E-3
MEAN_MOTION_DOT = -.1971E-3
MEAN_MOTION_DDOT = 0

